start=new Date('2021-09-01T00:00:00.000Z').valueOf();
sats=[{"MEAN_MOTION_DOT":"0.00009031","MEAN_ANOMALY":"282.9598","COUNTRY_CODE":"US","FILE":"3106454","EPHEMERIS_TYPE":"0","RA_OF_ASC_NODE":"82.4783","GP_ID":"183841789","ECCENTRICITY":"0.00015850","APOAPSIS":"483.356","ARG_OF_PERICENTER":"77.1577","MEAN_ELEMENT_THEORY":"SGP4","INCLINATION":"53.0540","REF_FRAME":"TEME","OBJECT_NAME":"STARLINK-2431","DECAY_DATE":null,"OBJECT_TYPE":"PAYLOAD","TLE_LINE1":"1 47839U 21018BE  21243.92776285  .00009031  00000-0  34012-3 0  9997","ELEMENT_SET_NO":"999","LAUNCH_DATE":"2021-03-11","PERIAPSIS":"481.181","EPOCH":"2021-08-31T22:15:58.710240","TLE_LINE2":"2 47839  53.0540  82.4783 0001585  77.1577 282.9598 15.27841478 28072","CLASSIFICATION_TYPE":"U","OBJECT_ID":"2021-018BE","CENTER_NAME":"EARTH","SITE":"AFETR","REV_AT_EPOCH":"2807","NORAD_CAT_ID":"47839","PERIOD":"94.251","RCS_SIZE":"LARGE","MEAN_MOTION_DDOT":"0.0000000000000","TIME_SYSTEM":"UTC","MEAN_MOTION":"15.27841478","SEMIMAJOR_AXIS":"6860.403","BSTAR":"0.00034012000000"},{"EPOCH":"2021-08-31T21:35:13.292160","PERIAPSIS":"545.822","LAUNCH_DATE":"2021-03-11","ELEMENT_SET_NO":"999","TLE_LINE1":"1 47840U 21018BF  21243.89945940 -.00000900  00000-0 -41553-4 0  9998","TLE_LINE2":"2 47840  53.0531  82.2995 0002095  98.6410 261.4816 15.06380492 28063","OBJECT_NAME":"STARLINK-2432","OBJECT_TYPE":"PAYLOAD","DECAY_DATE":null,"APOAPSIS":"548.724","ECCENTRICITY":"0.00020950","GP_ID":"183842039","REF_FRAME":"TEME","INCLINATION":"53.0531","ARG_OF_PERICENTER":"98.6410","MEAN_ELEMENT_THEORY":"SGP4","FILE":"3106454","COUNTRY_CODE":"US","MEAN_MOTION_DOT":"-0.00000900","MEAN_ANOMALY":"261.4816","RA_OF_ASC_NODE":"82.2995","EPHEMERIS_TYPE":"0","SEMIMAJOR_AXIS":"6925.408","MEAN_MOTION":"15.06380492","TIME_SYSTEM":"UTC","MEAN_MOTION_DDOT":"0.0000000000000","BSTAR":"-0.00004155300000","REV_AT_EPOCH":"2806","SITE":"AFETR","PERIOD":"95.593","RCS_SIZE":"LARGE","NORAD_CAT_ID":"47840","CENTER_NAME":"EARTH","OBJECT_ID":"2021-018BF","CLASSIFICATION_TYPE":"U"},{"BSTAR":"-0.00004578300000","SEMIMAJOR_AXIS":"6925.385","MEAN_MOTION":"15.06388228","TIME_SYSTEM":"UTC","MEAN_MOTION_DDOT":"0.0000000000000","PERIOD":"95.593","RCS_SIZE":"LARGE","NORAD_CAT_ID":"47841","REV_AT_EPOCH":"2805","SITE":"AFETR","CENTER_NAME":"EARTH","OBJECT_ID":"2021-018BG","CLASSIFICATION_TYPE":"U","TLE_LINE2":"2 47841  53.0548  82.6053 0002059  93.6777 266.4447 15.06388228 28051","EPOCH":"2021-08-31T19:54:22.161888","PERIAPSIS":"545.824","ELEMENT_SET_NO":"999","LAUNCH_DATE":"2021-03-11","TLE_LINE1":"1 47841U 21018BG  21243.82942317 -.00000963  00000-0 -45783-4 0  9995","OBJECT_TYPE":"PAYLOAD","DECAY_DATE":null,"OBJECT_NAME":"STARLINK-2433","REF_FRAME":"TEME","INCLINATION":"53.0548","ARG_OF_PERICENTER":"93.6777","MEAN_ELEMENT_THEORY":"SGP4","APOAPSIS":"548.676","ECCENTRICITY":"0.00020590","GP_ID":"183842791","RA_OF_ASC_NODE":"82.6053","EPHEMERIS_TYPE":"0","FILE":"3106454","COUNTRY_CODE":"US","MEAN_ANOMALY":"266.4447","MEAN_MOTION_DOT":"-0.00000963"},{"TLE_LINE2":"2 47842  53.0556 112.3765 0002176  72.3512 287.7715 15.06389307 27695","PERIAPSIS":"545.739","EPOCH":"2021-08-31T21:09:59.259168","TLE_LINE1":"1 47842U 21018BH  21243.88193587  .00001052  00000-0  89577-4 0  9996","LAUNCH_DATE":"2021-03-11","ELEMENT_SET_NO":"999","DECAY_DATE":null,"OBJECT_TYPE":"PAYLOAD","OBJECT_NAME":"STARLINK-2434","INCLINATION":"53.0556","REF_FRAME":"TEME","ARG_OF_PERICENTER":"72.3512","MEAN_ELEMENT_THEORY":"SGP4","ECCENTRICITY":"0.00021760","APOAPSIS":"548.753","GP_ID":"183843041","RA_OF_ASC_NODE":"112.3765","EPHEMERIS_TYPE":"0","COUNTRY_CODE":"US","FILE":"3106454","MEAN_ANOMALY":"287.7715","MEAN_MOTION_DOT":"0.00001052","BSTAR":"0.00008957700000","MEAN_MOTION":"15.06389307","SEMIMAJOR_AXIS":"6925.381","MEAN_MOTION_DDOT":"0.0000000000000","TIME_SYSTEM":"UTC","RCS_SIZE":"LARGE","PERIOD":"95.593","NORAD_CAT_ID":"47842","REV_AT_EPOCH":"2769","SITE":"AFETR","OBJECT_ID":"2021-018BH","CENTER_NAME":"EARTH","CLASSIFICATION_TYPE":"U"},{"MEAN_MOTION":"15.06377565","SEMIMAJOR_AXIS":"6925.417","MEAN_MOTION_DDOT":"0.0000000000000","TIME_SYSTEM":"UTC","BSTAR":"-0.00001602800000","SITE":"AFETR","REV_AT_EPOCH":"2773","RCS_SIZE":"LARGE","PERIOD":"95.594","NORAD_CAT_ID":"47843","OBJECT_ID":"2021-018BJ","CENTER_NAME":"EARTH","CLASSIFICATION_TYPE":"U","PERIAPSIS":"545.954","EPOCH":"2021-08-31T22:06:25.398720","TLE_LINE1":"1 47843U 21018BJ  21243.92112730 -.00000520  00000-0 -16028-4 0  9995","ELEMENT_SET_NO":"999","LAUNCH_DATE":"2021-03-11","TLE_LINE2":"2 47843  53.0556 107.2021 0001918  68.4567 291.6626 15.06377565 27736","OBJECT_NAME":"STARLINK-2435","DECAY_DATE":null,"OBJECT_TYPE":"PAYLOAD","ECCENTRICITY":"0.00019180","APOAPSIS":"548.611","GP_ID":"183841290","INCLINATION":"53.0556","REF_FRAME":"TEME","MEAN_ELEMENT_THEORY":"SGP4","ARG_OF_PERICENTER":"68.4567","COUNTRY_CODE":"US","FILE":"3106454","MEAN_MOTION_DOT":"-0.00000520","MEAN_ANOMALY":"291.6626","RA_OF_ASC_NODE":"107.2021","EPHEMERIS_TYPE":"0"},{"MEAN_MOTION_DOT":"-0.00000515","MEAN_ANOMALY":"296.2166","COUNTRY_CODE":"US","FILE":"3106454","EPHEMERIS_TYPE":"0","RA_OF_ASC_NODE":"102.2046","GP_ID":"183841540","APOAPSIS":"548.734","ECCENTRICITY":"0.00021320","MEAN_ELEMENT_THEORY":"SGP4","ARG_OF_PERICENTER":"63.9042","REF_FRAME":"TEME","INCLINATION":"53.0550","OBJECT_NAME":"STARLINK-2446","OBJECT_TYPE":"PAYLOAD","DECAY_DATE":null,"LAUNCH_DATE":"2021-03-11","ELEMENT_SET_NO":"999","TLE_LINE1":"1 47844U 21018BK  21243.91972765 -.00000515  00000-0 -15674-4 0  9997","EPOCH":"2021-08-31T22:04:24.468960","PERIAPSIS":"545.781","TLE_LINE2":"2 47844  53.0550 102.2046 0002132  63.9042 296.2166 15.06385521 27786","CLASSIFICATION_TYPE":"U","CENTER_NAME":"EARTH","OBJECT_ID":"2021-018BK","SITE":"AFETR","REV_AT_EPOCH":"2778","NORAD_CAT_ID":"47844","RCS_SIZE":"LARGE","PERIOD":"95.593","TIME_SYSTEM":"UTC","MEAN_MOTION_DDOT":"0.0000000000000","SEMIMAJOR_AXIS":"6925.393","MEAN_MOTION":"15.06385521","BSTAR":"-0.00001567400000"},{"SEMIMAJOR_AXIS":"6925.417","MEAN_MOTION":"15.06377593","TIME_SYSTEM":"UTC","MEAN_MOTION_DDOT":"0.0000000000000","BSTAR":"0.00008087300000","SITE":"AFETR","REV_AT_EPOCH":"2778","RCS_SIZE":"LARGE","PERIOD":"95.594","NORAD_CAT_ID":"47845","CENTER_NAME":"EARTH","OBJECT_ID":"2021-018BL","CLASSIFICATION_TYPE":"U","EPOCH":"2021-08-31T20:55:24.530880","PERIAPSIS":"546.233","LAUNCH_DATE":"2021-03-11","ELEMENT_SET_NO":"999","TLE_LINE1":"1 47845U 21018BL  21243.87181170  .00000923  00000-0  80873-4 0  9999","TLE_LINE2":"2 47845  53.0564 102.4329 0001515 107.5697 252.5457 15.06377593 27781","OBJECT_NAME":"STARLINK-2453","OBJECT_TYPE":"PAYLOAD","DECAY_DATE":null,"APOAPSIS":"548.331","ECCENTRICITY":"0.00015150","GP_ID":"183842292","REF_FRAME":"TEME","INCLINATION":"53.0564","ARG_OF_PERICENTER":"107.5697","MEAN_ELEMENT_THEORY":"SGP4","COUNTRY_CODE":"US","FILE":"3106454","MEAN_ANOMALY":"252.5457","MEAN_MOTION_DOT":"0.00000923","RA_OF_ASC_NODE":"102.4329","EPHEMERIS_TYPE":"0"},{"PERIAPSIS":"545.745","EPOCH":"2021-08-31T22:25:38.459424","TLE_LINE1":"1 47846U 21018BM  21243.93447291  .00000604  00000-0  59481-4 0  9993","LAUNCH_DATE":"2021-03-11","ELEMENT_SET_NO":"999","TLE_LINE2":"2 47846  53.0564 102.1498 0002152  67.5928 292.5289 15.06392860 27844","OBJECT_NAME":"STARLINK-2456","DECAY_DATE":null,"OBJECT_TYPE":"PAYLOAD","ECCENTRICITY":"0.00021520","APOAPSIS":"548.726","GP_ID":"183842542","INCLINATION":"53.0564","REF_FRAME":"TEME","MEAN_ELEMENT_THEORY":"SGP4","ARG_OF_PERICENTER":"67.5928","FILE":"3106454","COUNTRY_CODE":"US","MEAN_MOTION_DOT":"0.00000604","MEAN_ANOMALY":"292.5289","RA_OF_ASC_NODE":"102.1498","EPHEMERIS_TYPE":"0","MEAN_MOTION":"15.06392860","SEMIMAJOR_AXIS":"6925.370","MEAN_MOTION_DDOT":"0.0000000000000","TIME_SYSTEM":"UTC","BSTAR":"0.00005948100000","REV_AT_EPOCH":"2784","SITE":"AFETR","PERIOD":"95.593","RCS_SIZE":"LARGE","NORAD_CAT_ID":"47846","OBJECT_ID":"2021-018BM","CENTER_NAME":"EARTH","CLASSIFICATION_TYPE":"U"},{"REF_FRAME":"TEME","INCLINATION":"53.0570","MEAN_ELEMENT_THEORY":"SGP4","ARG_OF_PERICENTER":"88.7631","APOAPSIS":"548.423","ECCENTRICITY":"0.00016630","GP_ID":"183842041","RA_OF_ASC_NODE":"132.4117","EPHEMERIS_TYPE":"0","FILE":"3106454","COUNTRY_CODE":"US","MEAN_ANOMALY":"271.3548","MEAN_MOTION_DOT":"0.00000446","TLE_LINE2":"2 47860  53.0570 132.4117 0001663  88.7631 271.3548 15.06381138 27134","EPOCH":"2021-08-31T20:56:44.298816","PERIAPSIS":"546.120","ELEMENT_SET_NO":"999","LAUNCH_DATE":"2021-03-14","TLE_LINE1":"1 47860U 21021A   21243.87273494  .00000446  00000-0  48863-4 0  9994","OBJECT_TYPE":"PAYLOAD","DECAY_DATE":null,"OBJECT_NAME":"STARLINK-2258","CENTER_NAME":"EARTH","OBJECT_ID":"2021-021A","CLASSIFICATION_TYPE":"U","BSTAR":"0.00004886300000","SEMIMAJOR_AXIS":"6925.406","MEAN_MOTION":"15.06381138","TIME_SYSTEM":"UTC","MEAN_MOTION_DDOT":"0.0000000000000","RCS_SIZE":"LARGE","PERIOD":"95.593","NORAD_CAT_ID":"47860","REV_AT_EPOCH":"2713","SITE":"AFETR"},{"CLASSIFICATION_TYPE":"U","CENTER_NAME":"EARTH","OBJECT_ID":"2021-021B","NORAD_CAT_ID":"47861","PERIOD":"95.593","RCS_SIZE":"LARGE","REV_AT_EPOCH":"2745","SITE":"AFETR","BSTAR":"0.00012082000000","TIME_SYSTEM":"UTC","MEAN_MOTION_DDOT":"0.0000000000000","SEMIMAJOR_AXIS":"6925.401","MEAN_MOTION":"15.06382862","EPHEMERIS_TYPE":"0","RA_OF_ASC_NODE":"117.3331","MEAN_ANOMALY":"266.9740","MEAN_MOTION_DOT":"0.00001518","FILE":"3106454","COUNTRY_CODE":"US","MEAN_ELEMENT_THEORY":"SGP4","ARG_OF_PERICENTER":"93.1495","REF_FRAME":"TEME","INCLINATION":"53.0567","GP_ID":"183842793","APOAPSIS":"548.754","ECCENTRICITY":"0.00021490","OBJECT_TYPE":"PAYLOAD","DECAY_DATE":null,"OBJECT_NAME":"STARLINK-2280","TLE_LINE2":"2 47861  53.0567 117.3331 0002149  93.1495 266.9740 15.06382862 27453","LAUNCH_DATE":"2021-03-14","ELEMENT_SET_NO":"999","TLE_LINE1":"1 47861U 21021B   21243.89069634  .00001518  00000-0  12082-3 0  9990","EPOCH":"2021-08-31T21:22:36.163776","PERIAPSIS":"545.778"}];
